ORBCOMM FM33            
1 25983U 99065D   24194.41610758  .00001625  00000+0  57979-3 0  9991
2 25983  45.0277 171.9643 0006652 158.0414 202.0721 14.37927652287127
ORBCOMM FM36            
1 25984U 99065E   24194.61720050  .00001431  00000+0  53791-3 0  9994
2 25984  45.0394 257.5861 0002594 345.8803  14.1972 14.35852811286165
ORBCOMM FM35            
1 25985U 99065F   24194.54014882  .00001061  00000+0  41554-3 0  9999
2 25985  45.0396 260.8204 0002876 179.6698 180.4152 14.35359517285952
ORBCOMM FM34            
1 25986U 99065G   24194.51183387  .00001148  00000+0  44579-3 0  9990
2 25986  45.0390 261.5003 0001348  86.4996 273.6006 14.35336833286063
ORBCOMM FM38            
1 33060U 08031A   24194.51646480  .00002869  00000+0  42254-3 0  9992
2 33060  48.4404 130.1986 0005547  21.6747 338.4401 14.77942556864443
ORBCOMM FM41            
1 33061U 08031B   24194.60580635  .00003441  00000+0  50416-3 0  9998
2 33061  48.4437 136.5458 0004809   7.0010 163.2168 14.77667617863956
ORBCOMM FM29            
1 33062U 08031C   24194.59668855  .00003149  00000+0  46441-3 0  9996
2 33062  48.4388 144.6243 0006705   5.7519 164.3845 14.77613828863869
ORBCOMM FM39            
1 33063U 08031D   24194.43873336  .00002713  00000+0  41392-3 0  9998
2 33063  48.4395 166.3784 0007846 340.3119  19.7491 14.76559193863537
